{
    "links": {
        "self": "http://www.neowsapp.com/rest/v1/neo/3799653?api_key=iIulBulltgU6a56xZRHN4H3l9WmuAYTsLGpBGhQ2"
    },
    "id": "3799653",
    "neo_reference_id": "3799653",
    "name": "(2018 AT18)",
    "designation": "2018 AT18",
    "nasa_jpl_url": "http://ssd.jpl.nasa.gov/sbdb.cgi?sstr=3799653",
    "absolute_magnitude_h": 27.558,
    "estimated_diameter": {
        "kilometers": {
            "estimated_diameter_min": 0.0081837994,
            "estimated_diameter_max": 0.0182995318
        },
        "meters": {
            "estimated_diameter_min": 8.1837994213,
            "estimated_diameter_max": 18.2995318202
        },
        "miles": {
            "estimated_diameter_min": 0.0050851756,
            "estimated_diameter_max": 0.0113707984
        },
        "feet": {
            "estimated_diameter_min": 26.8497364934,
            "estimated_diameter_max": 60.0378359771
        }
    },
    "is_potentially_hazardous_asteroid": false,
    "close_approach_data": [
        {
            "close_approach_date": "2018-01-09",
            "close_approach_date_full": "2018-Jan-09 18:27",
            "epoch_date_close_approach": 1515522420000,
            "relative_velocity": {
                "kilometers_per_second": "6.7457269549",
                "kilometers_per_hour": "24284.6170376421",
                "miles_per_hour": "15089.5166254171"
            },
            "miss_distance": {
                "astronomical": "0.0114769609",
                "lunar": "4.4645377901",
                "kilometers": "1716928.904713283",
                "miles": "1066850.1508899854"
            },
            "orbiting_body": "Earth"
        }
    ],
    "orbital_data": {
        "orbit_id": "1",
        "orbit_determination_date": "2018-02-17 06:20:14",
        "first_observation_date": "2018-01-14",
        "last_observation_date": "2018-01-15",
        "data_arc_in_days": 1,
        "observations_used": 19,
        "orbit_uncertainty": "8",
        "minimum_orbit_intersection": ".0110573",
        "jupiter_tisserand_invariant": "3.525",
        "epoch_osculation": "2458133.5",
        "eccentricity": ".5333540495687552",
        "semi_major_axis": "2.129995050885911",
        "inclination": ".3682841582832108",
        "ascending_node_longitude": "315.4016320679811",
        "orbital_period": "1135.445565186545",
        "perihelion_distance": ".9939535649345034",
        "perihelion_argument": "150.4870583776364",
        "aphelion_distance": "3.266036536837318",
        "perihelion_time": "2458125.631911215196",
        "mean_anomaly": "2.494625941899804",
        "mean_motion": ".317056150499698",
        "equinox": "J2000",
        "orbit_class": {
            "orbit_class_type": "APO",
            "orbit_class_description": "Near-Earth asteroid orbits which cross the Earth’s orbit similar to that of 1862 Apollo",
            "orbit_class_range": "a (semi-major axis) > 1.0 AU; q (perihelion) < 1.017 AU"
        }
    },
    "is_sentry_object": false
}